ENTRYSAT                
1 44429U 98067QP  19282.90218657  .00008737  00000-0  14452-3 0  9997
2 44429  51.6410 151.1731 0003965 113.6847 246.4560 15.53048989 15368
VCC C                   
1 44430U 98067QQ  19282.90294928  .00010850  00000-0  17706-3 0  9998
2 44430  51.6410 151.1778 0004127 122.9444 237.1944 15.53138317 14196
VCC B                   
1 44431U 98067QR  19282.07265531  .00006569  00000-0  11137-3 0  9999
2 44431  51.6412 155.3828 0004250 115.5089 244.6341 15.52836708 15172
